{
  "norad_id": 49287,
  "name": "ONEWEB-0361",
  "history": [
    {
      "epoch": "2026-03-28T20:19:10.836480",
      "apogee_km": 1182.9399987630386,
      "perigee_km": 1180.61381325416,
      "latitude_deg": -14.463924071034196,
      "longitude_deg": -90.02129280008376,
      "semi_major_axis_km": 7559.913906008599,
      "eccentricity": 0.00015385,
      "inclination_deg": 87.9148,
      "raan_deg": 290.4801,
      "arg_perigee_deg": 92.4455,
      "mean_anomaly_deg": 267.6854,
      "mean_motion_rev_day": 13.20770887
    },
    {
      "epoch": "2026-03-29T01:46:27.038784",
      "apogee_km": 1182.9450993910878,
      "perigee_km": 1180.610597685859,
      "latitude_deg": 52.49930911930531,
      "longitude_deg": -68.2032902399078,
      "semi_major_axis_km": 7559.914848538473,
      "eccentricity": 0.0001544,
      "inclination_deg": 87.9148,
      "raan_deg": 290.4347,
      "arg_perigee_deg": 92.7581,
      "mean_anomaly_deg": 267.3729,
      "mean_motion_rev_day": 13.2077064
    }
  ]
}